[{"OBJECT_ID":"2007-044B","OBJECT_NAME":"INTELSAT 11 (PAS 11)","NORAD_CAT_ID":"32253","OBJECT_TYPE":"PAYLOAD","PERIOD":"1436.086","INCLINATION":"0.04","APOGEE":"35798.428","PERIGEE":"35774.377","ECCENTRICITY":"0.0002852","MEAN_MOTION":"1.00272478","TLE_LINE1":"1 32253U 07044B   16239.32519558 -.00000297  00000-0  00000+0 0  9997","TLE_LINE2":"2 32253   0.0400 249.3364 0002852 278.2851 241.4307  1.00272478 32616","LAUNCH_DATE":"2007-10-05","LAUNCH_SITE":"FRENCH GUIANA","OWNER":"INTERNATIONAL TELECOMMUNICATIONS SATELLITE ORGANIZATION (INTELSAT)","ORBIT_TYPE":"Geosynchronous","OPERATIONAL_STATUS":"Operational","satInfo":{"lng":-43.442166466894804,"lat":0.5170803930339593,"elevation":-8.070233377602145,"azimuth":358.4421664668948,"range":42575.686282095936,"height":35777.62555400858,"velocity":3.075257552470153},"x":-246,"y":-260},{"OBJECT_ID":"2007-056A","OBJECT_NAME":"STAR ONE C1","NORAD_CAT_ID":"32293","OBJECT_TYPE":"PAYLOAD","PERIOD":"1436.102","INCLINATION":"0.0208","APOGEE":"35798.443","PERIGEE":"35774.965","ECCENTRICITY":"0.0002784","MEAN_MOTION":"1.00271402","TLE_LINE1":"1 32293U 07056A   16238.25293134 -.00000302 +00000-0 +00000-0 0  9992","TLE_LINE2":"2 32293 000.0208 234.1530 0002784 298.4686 187.3771 01.00271402015853","LAUNCH_DATE":"2007-11-14","LAUNCH_SITE":"FRENCH GUIANA","OWNER":"BRAZIL","ORBIT_TYPE":"Geosynchronous","OPERATIONAL_STATUS":"Operational","satInfo":{"lng":-78.4898142264999,"lat":-0.16689535809440628,"elevation":-8.736341227553467,"azimuth":33.489814226499846,"range":42661.930421782956,"height":35788.997627688674,"velocity":3.0750126927636314},"x":-351,"y":-71},{"OBJECT_ID":"2007-056B","OBJECT_NAME":"SKYNET 5B","NORAD_CAT_ID":"32294","OBJECT_TYPE":"PAYLOAD","PERIOD":"1436.039","INCLINATION":"0.0699","APOGEE":"35801.228","PERIGEE":"35769.723","ECCENTRICITY":"0.0003736","MEAN_MOTION":"1.00275784","TLE_LINE1":"1 32294U 07056B   16238.96463987 +.00000115 +00000-0 +00000-0 0  9997","TLE_LINE2":"2 32294 000.0699 357.2396 0003736 164.5998 185.2001 01.00275784032301","LAUNCH_DATE":"2007-11-14","LAUNCH_SITE":"FRENCH GUIANA","OWNER":"UNITED KINGDOM","ORBIT_TYPE":"Geosynchronous","OPERATIONAL_STATUS":"Operational","satInfo":{"lng":61.60538149251369,"lat":0.024456386289695545,"elevation":-8.552284180196407,"azimuth":253.3946185074863,"range":42627.0497685038,"height":35774.92814764327,"velocity":3.074573107035536},"x":315,"y":-170},{"OBJECT_ID":"2007-057A","OBJECT_NAME":"ASTRA 4A (SIRIUS 4)","NORAD_CAT_ID":"32299","OBJECT_TYPE":"PAYLOAD","PERIOD":"1436.104","INCLINATION":"0.0453","APOGEE":"35797.379","PERIGEE":"35776.120","ECCENTRICITY":"0.0002521","MEAN_MOTION":"1.00271239","TLE_LINE1":"1 32299U 07057A   16239.09413947  .00000004  00000-0  00000+0 0  9995","TLE_LINE2":"2 32299   0.0453 295.0313 0002521 220.8542 217.5776  1.00271239 32044","LAUNCH_DATE":"2007-11-17","LAUNCH_SITE":"TYURATAM MISSILE AND SPACE COMPLEX","OWNER":"SOCIÉTÉ EUROPÉENNE DES SATELLITES","ORBIT_TYPE":"Geosynchronous","OPERATIONAL_STATUS":"Operational","satInfo":{"lng":8.808492302406378,"lat":0.7480097196292547,"elevation":-7.84011052977564,"azimuth":306.1915076975936,"range":42570.97606890253,"height":35798.50122456755,"velocity":3.0740666517701882},"x":55,"y":-354},{"OBJECT_ID":"2007-063B","OBJECT_NAME":"HORIZONS 2","NORAD_CAT_ID":"32388","OBJECT_TYPE":"PAYLOAD","PERIOD":"1436.143","INCLINATION":"0.0131","APOGEE":"35798.578","PERIGEE":"35776.433","ECCENTRICITY":"0.0002626","MEAN_MOTION":"1.00268542","TLE_LINE1":"1 32388U 07063B   16238.81068332 -.00000209  00000-0  00000+0 0  9992","TLE_LINE2":"2 32388   0.0131 111.5089 0002626  51.7254 187.9413  1.00268542 31955","LAUNCH_DATE":"2007-12-21","LAUNCH_SITE":"FRENCH GUIANA","OWNER":"INTERNATIONAL TELECOMMUNICATIONS SATELLITE ORGANIZATION (INTELSAT)","ORBIT_TYPE":"Geosynchronous","OPERATIONAL_STATUS":"Operational","satInfo":{"lng":65.9992811349633,"lat":-2.201224464544221,"elevation":-10.716374254686194,"azimuth":249.0007188650367,"range":42890.20955433634,"height":35795.14261831757,"velocity":3.0739856282191984},"x":327,"y":-146},{"OBJECT_ID":"2008-003A","OBJECT_NAME":"EXPRESS AM-33","NORAD_CAT_ID":"32478","OBJECT_TYPE":"PAYLOAD","PERIOD":"1436.127","INCLINATION":"0.0339","APOGEE":"35793.189","PERIGEE":"35781.188","ECCENTRICITY":"0.0001423","MEAN_MOTION":"1.00269673","TLE_LINE1":"1 32478U 08003A   16239.58005707 -.00000309  00000-0  00000+0 0  9990","TLE_LINE2":"2 32478   0.0339 273.2148 0001423 347.4361  19.8879  1.00269673 31703","LAUNCH_DATE":"2008-01-28","LAUNCH_SITE":"TYURATAM MISSILE AND SPACE COMPLEX","OWNER":"COMMONWEALTH OF INDEPENDENT STATES","ORBIT_TYPE":"Geosynchronous","OPERATIONAL_STATUS":"Operational","satInfo":{"lng":53.69485389565753,"lat":2.290364549936435,"elevation":-6.330524861914206,"azimuth":261.30514610434244,"range":42387.76417414052,"height":35784.81017237736,"velocity":3.0748640796906797},"x":288,"y":-212},{"OBJECT_ID":"2008-006A","OBJECT_NAME":"THOR 5","NORAD_CAT_ID":"32487","OBJECT_TYPE":"PAYLOAD","PERIOD":"1436.031","INCLINATION":"0.0588","APOGEE":"35795.868","PERIGEE":"35774.752","ECCENTRICITY":"0.0002504","MEAN_MOTION":"1.00276374","TLE_LINE1":"1 32487U 08006A   16239.18851640 -.00000037  00000-0  00000+0 0  9992","TLE_LINE2":"2 32487   0.0588 266.9078 0002504 259.3781 235.6868  1.00276374 31261","LAUNCH_DATE":"2008-02-11","LAUNCH_SITE":"TYURATAM MISSILE AND SPACE COMPLEX","OWNER":"NORWAY","ORBIT_TYPE":"Geosynchronous","OPERATIONAL_STATUS":"Operational","satInfo":{"lng":14.239666669107367,"lat":1.8316351515054827,"elevation":-6.777081418187972,"azimuth":300.7603333308926,"range":42457.19902396206,"height":35803.935192676276,"velocity":3.0739047086137123},"x":88,"y":-347},{"OBJECT_ID":"2008-007A","OBJECT_NAME":"WINDS (KIZUNA)","NORAD_CAT_ID":"32500","OBJECT_TYPE":"PAYLOAD","PERIOD":"1436.102","INCLINATION":"0.211","APOGEE":"35796.752","PERIGEE":"35776.664","ECCENTRICITY":"0.0002382","MEAN_MOTION":"1.00271387","TLE_LINE1":"1 32500U 08007A   16238.92132579 -.00000286 +00000-0 +00000-0 0  9990","TLE_LINE2":"2 32500 000.2110 093.0578 0002382 032.5779 323.6414 01.00271387030977","LAUNCH_DATE":"2008-02-23","LAUNCH_SITE":"TANEGASHIMA SPACE CENTER","OWNER":"JAPAN","ORBIT_TYPE":"Geosynchronous","OPERATIONAL_STATUS":"Operational","satInfo":{"lng":41.68000572124431,"lat":-2.4599208260603316,"elevation":-10.972863235725711,"azimuth":273.3199942787557,"range":42892.0660591527,"height":35768.55184428206,"velocity":3.074995365090426},"x":238,"y":-267},{"OBJECT_ID":"2008-013A","OBJECT_NAME":"DIRECTV 11","NORAD_CAT_ID":"32729","OBJECT_TYPE":"PAYLOAD","PERIOD":"1436.092","INCLINATION":"0.022","APOGEE":"35787.852","PERIGEE":"35785.179","ECCENTRICITY":"3.17e-05","MEAN_MOTION":"1.00272075","TLE_LINE1":"1 32729U 08013A   16239.11229942 -.00000154  00000-0  00000+0 0  9996","TLE_LINE2":"2 32729   0.0220 310.6394 0000317 275.0430  50.3310  1.00272075 31018","LAUNCH_DATE":"2008-03-19","LAUNCH_SITE":"SEA LAUNCH","OWNER":"UNITED STATES OF AMERICA","ORBIT_TYPE":"Geosynchronous","OPERATIONAL_STATUS":"Operational","satInfo":{"lng":-104.69243155720939,"lat":-1.7367476568808602,"elevation":-10.266204046317519,"azimuth":59.69243155720933,"range":42833.06648945639,"height":35788.53698131598,"velocity":3.0746441244231413},"x":-346,"y":91},{"OBJECT_ID":"2008-013B","OBJECT_NAME":"BLOCK DM-SL R/B","NORAD_CAT_ID":"32730","OBJECT_TYPE":"ROCKET BODY","PERIOD":"499.781","INCLINATION":"0.1308","APOGEE":"28761.652","PERIGEE":"205.200","ECCENTRICITY":"0.6844275","MEAN_MOTION":"2.88126061","TLE_LINE1":"1 32730U 08013B   16238.96753097  .00012836  00000-0  86703-3 0  9990","TLE_LINE2":"2 32730   0.1308 148.9446 6844275  40.8384 142.7937  2.88126061 77302","LAUNCH_DATE":"2008-03-19","LAUNCH_SITE":"SEA LAUNCH","OWNER":"SEA LAUNCH DEMO","ORBIT_TYPE":"Highly Elliptical Orbit","OPERATIONAL_STATUS":"N/A, derelict rocket body","satInfo":{"lng":-64.85804123916367,"lat":0.14294826541692815,"elevation":-13.122340810220715,"azimuth":19.85804123916367,"range":27705.07114077618,"height":20603.56978971991,"velocity":3.009968630999637},"x":-187,"y":-88},{"OBJECT_ID":"2008-018A","OBJECT_NAME":"VINASAT 1","NORAD_CAT_ID":"32767","OBJECT_TYPE":"PAYLOAD","PERIOD":"1436.122","INCLINATION":"0.0518","APOGEE":"35794.185","PERIGEE":"35780.000","ECCENTRICITY":"0.0001682","MEAN_MOTION":"1.00270016","TLE_LINE1":"1 32767U 08018A   16238.70467079 -.00000356 +00000-0 +00000-0 0  9997","TLE_LINE2":"2 32767 000.0518 291.5647 0001682 247.2479 181.1816 01.00270016030700","LAUNCH_DATE":"2008-04-18","LAUNCH_SITE":"FRENCH GUIANA","OWNER":"VIETNAM","ORBIT_TYPE":"Geosynchronous","OPERATIONAL_STATUS":"Operational","satInfo":{"lng":126.86917819215492,"lat":1.3244418092223875,"elevation":-7.2749062809078975,"azimuth":188.1308218078451,"range":42510.94553674592,"height":35801.85272356876,"velocity":3.0739398498449786},"x":286,"y":215},{"OBJECT_ID":"2008-018B","OBJECT_NAME":"STAR ONE C2","NORAD_CAT_ID":"32768","OBJECT_TYPE":"PAYLOAD","PERIOD":"1436.123","INCLINATION":"0.0367","APOGEE":"35796.767","PERIGEE":"35777.463","ECCENTRICITY":"0.0002289","MEAN_MOTION":"1.00269935","TLE_LINE1":"1 32768U 08018B   16238.26683172 -.00000291  00000-0  00000+0 0  9990","TLE_LINE2":"2 32768   0.0367 212.6190 0002289  19.6975 127.6573  1.00269935 30620","LAUNCH_DATE":"2008-04-18","LAUNCH_SITE":"FRENCH GUIANA","OWNER":"BRAZIL","ORBIT_TYPE":"Geosynchronous","OPERATIONAL_STATUS":"Operational","satInfo":{"lng":-87.1003068564097,"lat":0.15015920612819111,"elevation":-8.425659374463198,"azimuth":42.10030685640968,"range":42632.083993139015,"height":35793.95557125035,"velocity":3.0746726912326747},"x":-357,"y":-18}]